start=new Date('2022-01-13T00:00:00.000Z').valueOf();
sats=[{"MEAN_ANOMALY":"294.8553","MEAN_MOTION_DDOT":"0.0000000000000","BSTAR":"0.00008747400000","MEAN_ELEMENT_THEORY":"SGP4","SITE":"AFETR","LAUNCH_DATE":"2020-01-29","PERIOD":"95.592","REF_FRAME":"TEME","MEAN_MOTION":"15.06396035","REV_AT_EPOCH":"10804","EPOCH":"2022-01-12T08:41:36.928608","PERIAPSIS":"545.670","FILE":"3270709","OBJECT_ID":"2020-006AN","ELEMENT_SET_NO":"999","RCS_SIZE":"LARGE","CLASSIFICATION_TYPE":"U","MEAN_MOTION_DOT":"0.00001021","INCLINATION":"53.0536","OBJECT_TYPE":"PAYLOAD","NORAD_CAT_ID":"45080","EPHEMERIS_TYPE":"0","OBJECT_NAME":"STARLINK-1153","GP_ID":"193732408","ECCENTRICITY":"0.00022470","APOAPSIS":"548.782","RA_OF_ASC_NODE":"238.1660","COUNTRY_CODE":"US","SEMIMAJOR_AXIS":"6925.361","TIME_SYSTEM":"UTC","TLE_LINE2":"2 45080  53.0536 238.1660 0002247  65.2669 294.8553 15.06396035108043","DECAY_DATE":null,"TLE_LINE1":"1 45080U 20006AN  22012.36223297  .00001021  00000-0  87474-4 0  9994","CENTER_NAME":"EARTH","ARG_OF_PERICENTER":"65.2669"},{"DECAY_DATE":null,"TLE_LINE1":"1 45081U 20006AP  22012.34013259 -.00000728  00000-0 -29938-4 0  9994","ARG_OF_PERICENTER":"64.3252","CENTER_NAME":"EARTH","SEMIMAJOR_AXIS":"6925.370","TIME_SYSTEM":"UTC","TLE_LINE2":"2 45081  53.0547 238.2798 0002355  64.3252 295.7980 15.06393114108046","GP_ID":"193731654","ECCENTRICITY":"0.00023550","APOAPSIS":"548.866","INCLINATION":"53.0547","MEAN_MOTION_DOT":"-0.00000728","OBJECT_TYPE":"PAYLOAD","NORAD_CAT_ID":"45081","OBJECT_NAME":"STARLINK-1151","EPHEMERIS_TYPE":"0","COUNTRY_CODE":"US","RA_OF_ASC_NODE":"238.2798","ELEMENT_SET_NO":"999","CLASSIFICATION_TYPE":"U","RCS_SIZE":"LARGE","PERIAPSIS":"545.604","EPOCH":"2022-01-12T08:09:47.455776","OBJECT_ID":"2020-006AP","FILE":"3270709","MEAN_MOTION":"15.06393114","PERIOD":"95.593","REF_FRAME":"TEME","REV_AT_EPOCH":"10804","SITE":"AFETR","BSTAR":"-0.00002993800000","MEAN_ELEMENT_THEORY":"SGP4","LAUNCH_DATE":"2020-01-29","MEAN_ANOMALY":"295.7980","MEAN_MOTION_DDOT":"0.0000000000000"},{"INCLINATION":"53.0523","MEAN_MOTION_DOT":"-0.00000254","OBJECT_TYPE":"PAYLOAD","NORAD_CAT_ID":"45082","OBJECT_NAME":"STARLINK-1160","EPHEMERIS_TYPE":"0","GP_ID":"193731906","ECCENTRICITY":"0.00023460","APOAPSIS":"548.840","RA_OF_ASC_NODE":"238.3076","COUNTRY_CODE":"US","ELEMENT_SET_NO":"999","RCS_SIZE":"LARGE","CLASSIFICATION_TYPE":"U","TLE_LINE1":"1 45082U 20006AQ  22012.32906859 -.00000254  00000-0  18771-5 0  9997","DECAY_DATE":null,"CENTER_NAME":"EARTH","ARG_OF_PERICENTER":"67.2770","SEMIMAJOR_AXIS":"6925.351","TIME_SYSTEM":"UTC","TLE_LINE2":"2 45082  53.0523 238.3076 0002346  67.2770 292.8467 15.06399333108034","BSTAR":"0.00000187710000","MEAN_ELEMENT_THEORY":"SGP4","SITE":"AFETR","LAUNCH_DATE":"2020-01-29","MEAN_ANOMALY":"292.8467","MEAN_MOTION_DDOT":"0.0000000000000","EPOCH":"2022-01-12T07:53:51.526176","PERIAPSIS":"545.591","FILE":"3270709","OBJECT_ID":"2020-006AQ","PERIOD":"95.592","REF_FRAME":"TEME","MEAN_MOTION":"15.06399333","REV_AT_EPOCH":"10803"},{"MEAN_MOTION_DDOT":"0.0000000000000","MEAN_ANOMALY":"296.6588","LAUNCH_DATE":"2020-01-29","SITE":"AFETR","BSTAR":"-0.00000768870000","MEAN_ELEMENT_THEORY":"SGP4","REV_AT_EPOCH":"10771","MEAN_MOTION":"15.06388340","PERIOD":"95.593","REF_FRAME":"TEME","OBJECT_ID":"2020-006AR","FILE":"3270709","PERIAPSIS":"545.623","EPOCH":"2022-01-12T00:41:16.489248","CLASSIFICATION_TYPE":"U","RCS_SIZE":"LARGE","ELEMENT_SET_NO":"999","COUNTRY_CODE":"US","RA_OF_ASC_NODE":"259.6729","ECCENTRICITY":"0.00023490","GP_ID":"193732158","APOAPSIS":"548.876","MEAN_MOTION_DOT":"-0.00000396","INCLINATION":"53.0549","EPHEMERIS_TYPE":"0","OBJECT_TYPE":"PAYLOAD","OBJECT_NAME":"STARLINK-1190","NORAD_CAT_ID":"45083","TLE_LINE2":"2 45083  53.0549 259.6729 0002349  63.4641 296.6588 15.06388340107718","SEMIMAJOR_AXIS":"6925.384","TIME_SYSTEM":"UTC","ARG_OF_PERICENTER":"63.4641","CENTER_NAME":"EARTH","DECAY_DATE":null,"TLE_LINE1":"1 45083U 20006AR  22012.02866307 -.00000396  00000-0 -76887-5 0  9998"},{"MEAN_ANOMALY":"292.4365","MEAN_MOTION_DDOT":"0.0000000000000","MEAN_ELEMENT_THEORY":"SGP4","BSTAR":"0.00007741700000","SITE":"AFETR","LAUNCH_DATE":"2020-01-29","REF_FRAME":"TEME","PERIOD":"95.592","MEAN_MOTION":"15.06402489","REV_AT_EPOCH":"10831","EPOCH":"2022-01-12T06:36:54.846720","PERIAPSIS":"545.562","FILE":"3270709","OBJECT_ID":"2020-006AS","ELEMENT_SET_NO":"999","RCS_SIZE":"LARGE","CLASSIFICATION_TYPE":"U","OBJECT_TYPE":"PAYLOAD","NORAD_CAT_ID":"45084","OBJECT_NAME":"STARLINK-1173","EPHEMERIS_TYPE":"0","INCLINATION":"53.0538","MEAN_MOTION_DOT":"0.00000872","APOAPSIS":"548.850","ECCENTRICITY":"0.00023740","GP_ID":"193732908","RA_OF_ASC_NODE":"218.5570","COUNTRY_CODE":"US","TIME_SYSTEM":"UTC","SEMIMAJOR_AXIS":"6925.341","TLE_LINE2":"2 45084  53.0538 218.5570 0002374  67.6875 292.4365 15.06402489108313","DECAY_DATE":null,"TLE_LINE1":"1 45084U 20006AS  22012.27563480  .00000872  00000-0  77417-4 0  9998","CENTER_NAME":"EARTH","ARG_OF_PERICENTER":"67.6875"},{"MEAN_MOTION":"15.06392664","REF_FRAME":"TEME","PERIOD":"95.593","REV_AT_EPOCH":"10831","PERIAPSIS":"545.613","EPOCH":"2022-01-12T06:31:35.044896","OBJECT_ID":"2020-006AT","FILE":"3270709","MEAN_ANOMALY":"291.5113","MEAN_MOTION_DDOT":"0.0000000000000","SITE":"AFETR","MEAN_ELEMENT_THEORY":"SGP4","BSTAR":"0.00006926100000","LAUNCH_DATE":"2020-01-29","SEMIMAJOR_AXIS":"6925.371","TIME_SYSTEM":"UTC","TLE_LINE2":"2 45085  53.0535 218.5622 0002344  68.6126 291.5113 15.06392664108310","TLE_LINE1":"1 45085U 20006AT  22012.27193339  .00000750  00000-0  69261-4 0  9994","DECAY_DATE":null,"ARG_OF_PERICENTER":"68.6126","CENTER_NAME":"EARTH","ELEMENT_SET_NO":"999","CLASSIFICATION_TYPE":"U","RCS_SIZE":"LARGE","APOAPSIS":"548.859","GP_ID":"193731155","ECCENTRICITY":"0.00023440","EPHEMERIS_TYPE":"0","OBJECT_TYPE":"PAYLOAD","OBJECT_NAME":"STARLINK-1179","NORAD_CAT_ID":"45085","MEAN_MOTION_DOT":"0.00000750","INCLINATION":"53.0535","COUNTRY_CODE":"US","RA_OF_ASC_NODE":"218.5622"},{"ELEMENT_SET_NO":"999","CLASSIFICATION_TYPE":"U","RCS_SIZE":"LARGE","GP_ID":"193731407","ECCENTRICITY":"0.00019740","APOAPSIS":"544.610","INCLINATION":"53.0023","MEAN_MOTION_DOT":"0.00001419","OBJECT_TYPE":"PAYLOAD","OBJECT_NAME":"STARLINK-1181","EPHEMERIS_TYPE":"0","NORAD_CAT_ID":"45086","COUNTRY_CODE":"US","RA_OF_ASC_NODE":"214.4702","TIME_SYSTEM":"UTC","SEMIMAJOR_AXIS":"6921.378","TLE_LINE2":"2 45086  53.0023 214.4702 0001974  84.2408 275.8805 15.07696343108283","TLE_LINE1":"1 45086U 20006AU  22012.52324658  .00001419  00000-0  11042-3 0  9999","DECAY_DATE":null,"ARG_OF_PERICENTER":"84.2408","CENTER_NAME":"EARTH","MEAN_ANOMALY":"275.8805","MEAN_MOTION_DDOT":"0.0000000000000","SITE":"AFETR","BSTAR":"0.00011042000000","MEAN_ELEMENT_THEORY":"SGP4","LAUNCH_DATE":"2020-01-29","MEAN_MOTION":"15.07696343","PERIOD":"95.510","REF_FRAME":"TEME","REV_AT_EPOCH":"10828","PERIAPSIS":"541.877","EPOCH":"2022-01-12T12:33:28.504512","OBJECT_ID":"2020-006AU","FILE":"3270709"},{"PERIAPSIS":"545.658","EPOCH":"2022-01-12T06:10:21.641088","OBJECT_ID":"2020-006AV","FILE":"3270709","MEAN_MOTION":"15.06391697","PERIOD":"95.593","REF_FRAME":"TEME","REV_AT_EPOCH":"10831","SITE":"AFETR","BSTAR":"0.00007217000000","MEAN_ELEMENT_THEORY":"SGP4","LAUNCH_DATE":"2020-01-29","MEAN_ANOMALY":"288.2368","MEAN_MOTION_DDOT":"0.0000000000000","TLE_LINE1":"1 45087U 20006AV  22012.25719492  .00000793  00000-0  72170-4 0  9998","DECAY_DATE":null,"ARG_OF_PERICENTER":"71.8870","CENTER_NAME":"EARTH","TIME_SYSTEM":"UTC","SEMIMAJOR_AXIS":"6925.374","TLE_LINE2":"2 45087  53.0536 218.6304 0002283  71.8870 288.2368 15.06391697108315","GP_ID":"193732658","ECCENTRICITY":"0.00022830","APOAPSIS":"548.820","INCLINATION":"53.0536","MEAN_MOTION_DOT":"0.00000793","OBJECT_NAME":"STARLINK-1185","OBJECT_TYPE":"PAYLOAD","NORAD_CAT_ID":"45087","EPHEMERIS_TYPE":"0","COUNTRY_CODE":"US","RA_OF_ASC_NODE":"218.6304","ELEMENT_SET_NO":"999","CLASSIFICATION_TYPE":"U","RCS_SIZE":"LARGE"},{"SITE":"AFETR","BSTAR":"-0.00001427300000","MEAN_ELEMENT_THEORY":"SGP4","LAUNCH_DATE":"2020-01-29","MEAN_ANOMALY":"287.5961","MEAN_MOTION_DDOT":"0.0000000000000","PERIAPSIS":"545.587","EPOCH":"2022-01-12T06:42:12.677760","OBJECT_ID":"2020-006AW","FILE":"3270709","MEAN_MOTION":"15.06396445","PERIOD":"95.592","REF_FRAME":"TEME","REV_AT_EPOCH":"10831","GP_ID":"193732409","ECCENTRICITY":"0.00023640","APOAPSIS":"548.862","MEAN_MOTION_DOT":"-0.00000494","INCLINATION":"53.0540","OBJECT_NAME":"STARLINK-1183","OBJECT_TYPE":"PAYLOAD","EPHEMERIS_TYPE":"0","NORAD_CAT_ID":"45088","COUNTRY_CODE":"US","RA_OF_ASC_NODE":"218.5500","ELEMENT_SET_NO":"999","CLASSIFICATION_TYPE":"U","RCS_SIZE":"LARGE","TLE_LINE1":"1 45088U 20006AW  22012.27931340 -.00000494  00000-0 -14273-4 0  9999","DECAY_DATE":null,"ARG_OF_PERICENTER":"72.5286","CENTER_NAME":"EARTH","TIME_SYSTEM":"UTC","SEMIMAJOR_AXIS":"6925.359","TLE_LINE2":"2 45088  53.0540 218.5500 0002364  72.5286 287.5961 15.06396445108314"},{"RCS_SIZE":"LARGE","CLASSIFICATION_TYPE":"U","ELEMENT_SET_NO":"999","RA_OF_ASC_NODE":"217.9110","COUNTRY_CODE":"US","OBJECT_TYPE":"PAYLOAD","NORAD_CAT_ID":"45089","OBJECT_NAME":"STARLINK-1136","EPHEMERIS_TYPE":"0","INCLINATION":"53.0576","MEAN_MOTION_DOT":"-0.00001097","APOAPSIS":"548.655","GP_ID":"193731655","ECCENTRICITY":"0.00020480","TLE_LINE2":"2 45089  53.0576 217.9110 0002048  73.7323 286.3891 15.06392323108341","SEMIMAJOR_AXIS":"6925.372","TIME_SYSTEM":"UTC","CENTER_NAME":"EARTH","ARG_OF_PERICENTER":"73.7323","DECAY_DATE":null,"TLE_LINE1":"1 45089U 20006AX  22012.41106007 -.00001097  00000-0 -54780-4 0  9997","MEAN_MOTION_DDOT":"0.0000000000000","MEAN_ANOMALY":"286.3891","LAUNCH_DATE":"2020-01-29","MEAN_ELEMENT_THEORY":"SGP4","BSTAR":"-0.00005478000000","SITE":"AFETR","REV_AT_EPOCH":"10834","REF_FRAME":"TEME","PERIOD":"95.593","MEAN_MOTION":"15.06392323","FILE":"3270709","OBJECT_ID":"2020-006AX","EPOCH":"2022-01-12T09:51:55.590048","PERIAPSIS":"545.819"}];
